{
  "norad_id": 58945,
  "name": "STARLINK-31359",
  "history": [
    {
      "epoch": "2026-03-28T12:57:32.124960",
      "apogee_km": 476.19439506476283,
      "perigee_km": 474.2816181004255,
      "latitude_deg": 53.16037237151168,
      "longitude_deg": 126.33569439989515,
      "semi_major_axis_km": 6853.375006582593,
      "eccentricity": 0.00013955,
      "inclination_deg": 53.1605,
      "raan_deg": 183.6268,
      "arg_perigee_deg": 87.1596,
      "mean_anomaly_deg": 272.9565,
      "mean_motion_rev_day": 15.30192318
    }
  ]
}